OBJECT_NAME,OBJECT_ID,EPOCH,MEAN_MOTION,ECCENTRICITY,INCLINATION,RA_OF_ASC_NODE,ARG_OF_PERICENTER,MEAN_ANOMALY,EPHEMERIS_TYPE,CLASSIFICATION_TYPE,NORAD_CAT_ID,ELEMENT_SET_NO,REV_AT_EPOCH,BSTAR,MEAN_MOTION_DOT,MEAN_MOTION_DDOT
TJS-14,2025-017A,2026-07-15T15:10:02.565696,1.00267236,.0002073,0.7201,297.7732,308.9699,292.6615,0,U,62804,999,555,0,.105E-5,0
SPAINSAT NG I,2025-021A,2026-07-15T13:30:29.384640,1.00270147,.00001252,0.0164,27.5270,259.5312,237.9484,0,U,62852,999,427,0,.141E-5,0
QZS-6 (MICHIBIKI-6),2025-023A,2026-07-15T14:27:01.274976,1.00266904,.00018318,0.0094,6.7011,125.3930,108.5250,0,U,62876,999,523,0,-.241E-5,0
ZHONGXING-10R,2025-036A,2026-07-15T14:12:43.120800,1.00272077,.00042121,0.0070,161.8879,345.4678,109.7756,0,U,63075,999,524,0,-.362E-5,0
TJS-15,2025-045A,2026-07-15T18:56:58.771104,1.00273597,.0003066,0.3119,85.6598,292.9051,293.6840,0,U,63157,999,504,0,-.275E-5,0
TIANLIAN 2-04,2025-062A,2026-07-15T15:27:38.378016,1.00271284,.0031561,4.3031,274.0306,9.3853,321.9973,0,U,63361,999,488,0,-.143E-5,0
TJS-16,2025-064A,2026-07-15T18:53:54.994848,1.00270906,.0002479,1.1700,81.2787,291.6842,4.7594,0,U,63397,999,467,0,-.116E-5,0
TJS-17,2025-073A,2026-07-15T18:52:29.960832,1.00270762,.0000992,1.1360,82.4463,306.3943,352.4100,0,U,63524,999,457,0,-.81E-6,0
TIANLIAN 2-05,2025-084A,2026-07-15T11:45:16.286976,1.00271602,.00025775,4.3811,279.5123,154.2830,56.2163,0,U,63662,999,466,0,.117E-5,0
TJS-19,2025-097A,2026-07-15T18:54:44.013024,1.00275653,.0004092,3.2394,317.9160,253.1642,147.4040,0,U,63924,999,443,0,-.283E-5,0
CHINASAT 3B,2025-106A,2026-07-15T14:09:53.331840,1.00267124,.00039186,0.0224,143.2807,6.6775,163.2567,0,U,64062,999,434,0,-.56E-6,0
SXM-10,2025-122A,2026-07-13T14:37:25.836384,1.00271903,.00018282,0.0157,36.2449,322.9748,35.4661,0,U,64290,999,394,0,-.21E-6,0
COSMOS 2589,2025-131A,2026-07-15T18:30:21.915072,1.00270156,.0000982,0.0263,114.6010,81.0100,113.6102,0,U,64467,999,384,0,-.301E-5,0
CHINASAT 9C,2025-132A,2026-07-15T15:59:26.802816,1.00266656,.00029947,0.0189,78.4907,36.3055,150.7765,0,U,64470,999,443,0,0,0
MTG-S1,2025-143A,2026-07-15T13:22:00.199200,1.00273631,.00034411,0.5843,345.1773,261.4037,246.9181,0,U,64723,999,370,0,-.17E-6,0
DROR 1,2025-148A,2026-07-15T13:20:52.807200,1.00272003,.00019852,0.0463,252.0227,144.5531,93.0427,0,U,64784,999,358,0,-.44E-6,0
SHIYAN-29,2025-196A,2026-07-14T20:09:41.361120,1.00276426,.00133058,28.8510,18.1865,177.9549,134.2779,0,U,65486,999,315,0,-.286E-5,0
NUSANTARA LIMA (NUSANTARA 5),2025-205A,2026-07-15T14:08:14.784000,1.00265960,.00007417,0.0093,122.3126,81.5100,54.4982,0,U,65588,999,300,0,-.367E-5,0
TJS-20,2025-238A,2026-07-15T14:53:38.639904,1.00275113,.00043024,5.4071,299.4419,182.4083,97.4924,0,U,66142,999,261,0,.18E-6,0
CMS-03 (GSAT-7R),2025-249B,2026-07-15T13:43:15.605760,1.00271349,.00014853,0.0158,306.4444,133.8241,132.9323,0,U,66311,999,263,0,-.87E-6,0
VIASAT-3 F2,2025-261A,2026-07-14T07:54:32.066784,1.00270448,.00007495,0.0014,307.9780,275.9845,107.8920,0,U,66454,999,306,0,-.24E-5,0
SHIJIAN-28 (SJ-28),2025-277A,2026-07-15T13:55:29.432928,1.00266720,.00011464,4.4663,271.6822,22.6044,324.8010,0,U,66549,999,243,0,-.368E-5,0
TJS-22,2025-290A,2026-07-12T19:22:52.255200,1.00269739,.0002691,1.4677,286.9097,318.9700,42.0235,0,U,66990,999,228,0,-.5E-7,0
TJS-23,2025-306A,2026-07-15T12:34:28.658784,1.00275619,.00050357,5.5248,297.3376,195.1882,165.0385,0,U,67226,999,217,0,.13E-6,0
FENGYUN 4C,2025-312A,2026-07-13T15:48:28.031328,1.00269440,.00006584,0.0385,175.3203,48.7481,77.5697,0,U,67246,999,204,0,-.328E-5,0
SHIJIAN-29A (SJ-29A),2025-315A,2026-07-15T18:51:03.253248,1.00272503,.0004899,3.4687,94.4218,52.1836,142.9452,0,U,67302,999,190,0,-.8E-6,0
SHIJIAN-29B (SJ-29B),2025-315C,2026-07-15T18:51:03.253248,1.00272774,.0005036,3.4676,94.4145,54.2661,140.9180,0,U,67403,999,197,0,-.8E-6,0
ELEKTRO-L 5,2026-028A,2026-07-14T23:24:18.492192,1.00271918,.0002073,0.2077,324.6350,175.9176,219.4446,0,U,67756,999,152,0,-.107E-5,0
JAM-E JAM 1,2026-028B,2026-07-15T15:24:57.025152,1.00274132,.00016744,0.2056,313.1736,320.2484,285.3309,0,U,67757,999,140,0,.146E-5,0
ECHOSTAR 25,2026-045A,2026-07-15T14:33:28.571616,1.00271626,.00019337,0.0225,62.7908,50.6469,288.4019,0,U,68126,999,127,0,0,0
TJS-24,2026-116A,2026-07-15T18:09:51.217056,1.00269666,.0000366,0.0789,94.6933,121.2483,80.4057,0,U,69235,999,51,0,-.241E-5,0
