TJS-14                  
1 62804U 25017A   26196.63197414  .00000105  00000+0  00000+0 0  9998
2 62804   0.7201 297.7732 0002073 308.9699 292.6615  1.00267236  5558
SPAINSAT NG I           
1 62852U 25021A   26196.56284010  .00000141  00000+0  00000+0 0  9997
2 62852   0.0164  27.5270 0000125 259.5312 237.9484  1.00270147  4276
QZS-6 (MICHIBIKI-6)     
1 62876U 25023A   26196.60209809 -.00000241  00000+0  00000+0 0  9995
2 62876   0.0094   6.7011 0001831 125.3930 108.5250  1.00266904  5234
ZHONGXING-10R           
1 63075U 25036A   26196.59216575 -.00000362  00000+0  00000+0 0  9991
2 63075   0.0070 161.8879 0004212 345.4678 109.7756  1.00272077  5248
TJS-15                  
1 63157U 25045A   26196.78956911 -.00000275  00000+0  00000+0 0  9991
2 63157   0.3119  85.6598 0003066 292.9051 293.6840  1.00273597  5047
TIANLIAN 2-04           
1 63361U 25062A   26196.64419419 -.00000143  00000+0  00000+0 0  9993
2 63361   4.3031 274.0306 0031561   9.3853 321.9973  1.00271284  4887
TJS-16                  
1 63397U 25064A   26196.78744207 -.00000116  00000+0  00000+0 0  9995
2 63397   1.1700  81.2787 0002479 291.6842   4.7594  1.00270906  4677
TJS-17                  
1 63524U 25073A   26196.78645788 -.00000081  00000+0  00000+0 0  9992
2 63524   1.1360  82.4463 0000992 306.3943 352.4100  1.00270762  4574
TIANLIAN 2-05           
1 63662U 25084A   26196.48977184  .00000117  00000+0  00000+0 0  9991
2 63662   4.3811 279.5123 0002577 154.2830  56.2163  1.00271602  4663
TJS-19                  
1 63924U 25097A   26196.78800941 -.00000283  00000+0  00000+0 0  9990
2 63924   3.2394 317.9160 0004092 253.1642 147.4040  1.00275653  4432
CHINASAT 3B             
1 64062U 25106A   26196.59020060 -.00000056  00000+0  00000+0 0  9998
2 64062   0.0224 143.2807 0003918   6.6775 163.2567  1.00267124  4349
SXM-10                  
1 64290U 25122A   26194.60932681 -.00000021  00000+0  00000+0 0  9992
2 64290   0.0157  36.2449 0001828 322.9748  35.4661  1.00271903  3942
COSMOS 2589             
1 64467U 25131A   26196.77108698 -.00000301  00000+0  00000+0 0  9992
2 64467   0.0263 114.6010 0000982  81.0100 113.6102  1.00270156  3843
CHINASAT 9C             
1 64470U 25132A   26196.66628244  .00000000  00000+0  00000+0 0  9994
2 64470   0.0189  78.4907 0002994  36.3055 150.7765  1.00266656  4436
MTG-S1                  
1 64723U 25143A   26196.55694675 -.00000017  00000+0  00000+0 0  9995
2 64723   0.5843 345.1773 0003441 261.4037 246.9181  1.00273631  3703
DROR 1                  
1 64784U 25148A   26196.55616675 -.00000044  00000+0  00000+0 0  9991
2 64784   0.0463 252.0227 0001985 144.5531  93.0427  1.00272003  3586
SHIYAN-29               
1 65486U 25196A   26195.84006205 -.00000286  00000+0  00000+0 0  9995
2 65486  28.8510  18.1865 0013305 177.9549 134.2779  1.00276426  3158
NUSANTARA LIMA (NUSANT*)
1 65588U 25205A   26196.58906000 -.00000367  00000+0  00000+0 0  9993
2 65588   0.0093 122.3126 0000741  81.5100  54.4982  1.00265960  3004
TJS-20                  
1 66142U 25238A   26196.62058611  .00000018  00000+0  00000+0 0  9999
2 66142   5.4071 299.4419 0004302 182.4083  97.4924  1.00275113  2615
CMS-03 (GSAT-7R)        
1 66311U 25249B   26196.57170840 -.00000087  00000+0  00000+0 0  9999
2 66311   0.0158 306.4444 0001485 133.8241 132.9323  1.00271349  2639
VIASAT-3 F2             
1 66454U 25261A   26195.32953781 -.00000240  00000+0  00000+0 0  9997
2 66454   0.0014 307.9780 0000749 275.9845 107.8920  1.00270448  3068
SHIJIAN-28 (SJ-28)      
1 66549U 25277A   26196.58020177 -.00000368  00000+0  00000+0 0  9993
2 66549   4.4663 271.6822 0001146  22.6044 324.8010  1.00266720  2434
TJS-22                  
1 66990U 25290A   26193.80754925 -.00000005  00000+0  00000+0 0  9993
2 66990   1.4677 286.9097 0002691 318.9700  42.0235  1.00269739  2289
TJS-23                  
1 67226U 25306A   26196.52394281  .00000013  00000+0  00000+0 0  9999
2 67226   5.5248 297.3376 0005035 195.1882 165.0385  1.00275619  2172
FENGYUN 4C              
1 67246U 25312A   26194.65865777 -.00000328  00000+0  00000+0 0  9993
2 67246   0.0385 175.3203 0000658  48.7481  77.5697  1.00269440  2048
SHIJIAN-29A (SJ-29A)    
1 67302U 25315A   26196.78545432 -.00000080  00000+0  00000+0 0  9993
2 67302   3.4687  94.4218 0004899  52.1836 142.9452  1.00272503  1908
SHIJIAN-29B (SJ-29B)    
1 67403U 25315C   26196.78545432 -.00000080  00000+0  00000+0 0  9995
2 67403   3.4676  94.4145 0005036  54.2661 140.9180  1.00272774  1973
ELEKTRO-L 5             
1 67756U 26028A   26195.97521403 -.00000107  00000+0  00000+0 0  9990
2 67756   0.2077 324.6350 0002073 175.9176 219.4446  1.00271918  1527
JAM-E JAM 1             
1 67757U 26028B   26196.64232668  .00000146  00000+0  00000+0 0  9990
2 67757   0.2056 313.1736 0001674 320.2484 285.3309  1.00274132  1407
ECHOSTAR 25             
1 68126U 26045A   26196.60658069  .00000000  00000+0  00000+0 0  9992
2 68126   0.0225  62.7908 0001933  50.6469 288.4019  1.00271626  1279
TJS-24                  
1 69235U 26116A   26196.75684279 -.00000241  00000+0  00000+0 0  9999
2 69235   0.0789  94.6933 0000366 121.2483  80.4057  1.00269666   517
